[{"OBJECT_NAME":"STARLINK-30120","OBJECT_ID":"2023-079B","EPOCH":"2026-03-09T22:00:01.999584","MEAN_MOTION":15.17882096,"ECCENTRICITY":0.0002013,"INCLINATION":42.9994,"RA_OF_ASC_NODE":105.6157,"ARG_OF_PERICENTER":280.1229,"MEAN_ANOMALY":118.6442,"EPHEMERIS_TYPE":0,"CLASSIFICATION_TYPE":"U","NORAD_CAT_ID":56824,"ELEMENT_SET_NO":999,"REV_AT_EPOCH":578,"BSTAR":0.059515571,"MEAN_MOTION_DOT":0.01333909,"MEAN_MOTION_DDOT":0},{"OBJECT_NAME":"TEVEL2-6","OBJECT_ID":"2025-052F","EPOCH":"2026-03-09T15:35:24.554400","MEAN_MOTION":15.30760889,"ECCENTRICITY":0.0004769,"INCLINATION":97.4016,"RA_OF_ASC_NODE":325.0381,"ARG_OF_PERICENTER":95.6604,"MEAN_ANOMALY":264.5181,"EPHEMERIS_TYPE":0,"CLASSIFICATION_TYPE":"U","NORAD_CAT_ID":63215,"ELEMENT_SET_NO":999,"REV_AT_EPOCH":5486,"BSTAR":0.00070909,"MEAN_MOTION_DOT":0.00021046,"MEAN_MOTION_DDOT":0}]
